{
  "type": "FeatureCollection",
  "features": [
    {
      "type": "Feature",
      "properties": {
        "norad_id": 30153,
        "name": "FENGYUN 1C DEB",
        "group": "fengyun-1c-debris",
        "lat": -58.29490846722918,
        "lon": 130.01161135693587,
        "alt_km": 1099.7757310497236,
        "timestamp": "2025-12-03T22:42:32.909704+00:00",
        "meta_object_name": "FENGYUN 1C DEB",
        "meta_object_id": "1999-025TJ",
        "meta_epoch": "2025-12-02T21:27:27.266976",
        "meta_mean_motion": 13.78725881,
        "meta_eccentricity": 0.02008571,
        "meta_inclination": 100.466,
        "meta_ra_of_asc_node": 326.2619,
        "meta_arg_of_pericenter": 30.5571,
        "meta_mean_anomaly": 30.934,
        "meta_ephemeris_type": 0,
        "meta_classification_type": "U",
        "meta_norad_cat_id": 30153,
        "meta_element_set_no": 999,
        "meta_rev_at_epoch": 94639,
        "meta_bstar": 0.0012982003,
        "meta_mean_motion_dot": 1.481e-05,
        "meta_mean_motion_ddot": 0,
        "tle_line1": "1 30153U 99025TJ  25336.89406559  .00001481  00000+0  12982-2 0  9999",
        "tle_line2": "2 30153 100.4660 326.2619 0200857  30.5571  30.9340 13.78725881946393"
      },
      "geometry": {
        "type": "Point",
        "coordinates": [
          130.01161135693587,
          -58.29490846722918
        ]
      }
    },
    {
      "type": "Feature",
      "properties": {
        "norad_id": 30154,
        "name": "FENGYUN 1C DEB",
        "group": "fengyun-1c-debris",
        "lat": -80.48560518349032,
        "lon": 138.0862580905116,
        "alt_km": 851.3221448236318,
        "timestamp": "2025-12-03T22:42:32.909713+00:00",
        "meta_object_name": "FENGYUN 1C DEB",
        "meta_object_id": "1999-025TK",
        "meta_epoch": "2025-12-02T02:15:41.257728",
        "meta_mean_motion": 13.85922523,
        "meta_eccentricity": 0.01824653,
        "meta_inclination": 98.4506,
        "meta_ra_of_asc_node": 18.9121,
        "meta_arg_of_pericenter": 227.7645,
        "meta_mean_anomaly": 161.336,
        "meta_ephemeris_type": 0,
        "meta_classification_type": "U",
        "meta_norad_cat_id": 30154,
        "meta_element_set_no": 999,
        "meta_rev_at_epoch": 94837,
        "meta_bstar": 0.0017171262,
        "meta_mean_motion_dot": 2.209e-05,
        "meta_mean_motion_ddot": 0,
        "tle_line1": "1 30154U 99025TK  25336.09422752  .00002209  00000+0  17171-2 0  9999",
        "tle_line2": "2 30154  98.4506  18.9121 0182465 227.7645 161.3360 13.85922523948379"
      },
      "geometry": {
        "type": "Point",
        "coordinates": [
          138.0862580905116,
          -80.48560518349032
        ]
      }
    },
    {
      "type": "Feature",
      "properties": {
        "norad_id": 30155,
        "name": "FENGYUN 1C DEB",
        "group": "fengyun-1c-debris",
        "lat": 30.293722111699225,
        "lon": -122.94177512658972,
        "alt_km": 1124.0082539248715,
        "timestamp": "2025-12-03T22:42:32.909722+00:00",
        "meta_object_name": "FENGYUN 1C DEB",
        "meta_object_id": "1999-025TL",
        "meta_epoch": "2025-12-03T04:30:58.879872",
        "meta_mean_motion": 13.73744951,
        "meta_eccentricity": 0.02419342,
        "meta_inclination": 99.7525,
        "meta_ra_of_asc_node": 50.5185,
        "meta_arg_of_pericenter": 8.6603,
        "meta_mean_anomaly": 351.8608,
        "meta_ephemeris_type": 0,
        "meta_classification_type": "U",
        "meta_norad_cat_id": 30155,
        "meta_element_set_no": 999,
        "meta_rev_at_epoch": 93733,
        "meta_bstar": 0.0022484842,
        "meta_mean_motion_dot": 2.55e-05,
        "meta_mean_motion_ddot": 0,
        "tle_line1": "1 30155U 99025TL  25337.18818148  .00002550  00000+0  22485-2 0  9992",
        "tle_line2": "2 30155  99.7525  50.5185 0241934   8.6603 351.8608 13.73744951937333"
      },
      "geometry": {
        "type": "Point",
        "coordinates": [
          -122.94177512658972,
          30.293722111699225
        ]
      }
    },
    {
      "type": "Feature",
      "properties": {
        "norad_id": 30156,
        "name": "FENGYUN 1C DEB",
        "group": "fengyun-1c-debris",
        "lat": 1.9123147505291482,
        "lon": 125.73121894871926,
        "alt_km": 1007.9949711474137,
        "timestamp": "2025-12-03T22:42:32.909731+00:00",
        "meta_object_name": "FENGYUN 1C DEB",
        "meta_object_id": "1999-025TM",
        "meta_epoch": "2025-12-03T08:41:31.729056",
        "meta_mean_motion": 13.80756146,
        "meta_eccentricity": 0.020016,
        "meta_inclination": 98.9176,
        "meta_ra_of_asc_node": 304.8793,
        "meta_arg_of_pericenter": 288.1138,
        "meta_mean_anomaly": 230.476,
        "meta_ephemeris_type": 0,
        "meta_classification_type": "U",
        "meta_norad_cat_id": 30156,
        "meta_element_set_no": 999,
        "meta_rev_at_epoch": 94561,
        "meta_bstar": 0.0024003,
        "meta_mean_motion_dot": 2.895e-05,
        "meta_mean_motion_ddot": 0,
        "tle_line1": "1 30156U 99025TM  25337.36217279  .00002895  00000+0  24003-2 0  9991",
        "tle_line2": "2 30156  98.9176 304.8793 0200160 288.1138 230.4760 13.80756146945619"
      },
      "geometry": {
        "type": "Point",
        "coordinates": [
          125.73121894871926,
          1.9123147505291482
        ]
      }
    },
    {
      "type": "Feature",
      "properties": {
        "norad_id": 30157,
        "name": "FENGYUN 1C DEB",
        "group": "fengyun-1c-debris",
        "lat": -47.06816718433623,
        "lon": -114.73948179897016,
        "alt_km": 723.2931057788128,
        "timestamp": "2025-12-03T22:42:32.909740+00:00",
        "meta_object_name": "FENGYUN 1C DEB",
        "meta_object_id": "1999-025TN",
        "meta_epoch": "2025-12-02T06:01:25.021920",
        "meta_mean_motion": 14.44832563,
        "meta_eccentricity": 0.0036914,
        "meta_inclination": 98.7167,
        "meta_ra_of_asc_node": 73.0144,
        "meta_arg_of_pericenter": 223.5946,
        "meta_mean_anomaly": 191.4647,
        "meta_ephemeris_type": 0,
        "meta_classification_type": "U",
        "meta_norad_cat_id": 30157,
        "meta_element_set_no": 999,
        "meta_rev_at_epoch": 97921,
        "meta_bstar": 0.0027288,
        "meta_mean_motion_dot": 9.533e-05,
        "meta_mean_motion_ddot": 0,
        "tle_line1": "1 30157U 99025TN  25336.25098405  .00009533  00000+0  27288-2 0  9991",
        "tle_line2": "2 30157  98.7167  73.0144 0036914 223.5946 191.4647 14.44832563979219"
      },
      "geometry": {
        "type": "Point",
        "coordinates": [
          -114.73948179897016,
          -47.06816718433623
        ]
      }
    },
    {
      "type": "Feature",
      "properties": {
        "norad_id": 30160,
        "name": "FENGYUN 1C DEB",
        "group": "fengyun-1c-debris",
        "lat": -81.0491458484816,
        "lon": 10.834414246904206,
        "alt_km": 1231.2743251765296,
        "timestamp": "2025-12-03T22:42:32.909749+00:00",
        "meta_object_name": "FENGYUN 1C DEB",
        "meta_object_id": "1999-025TR",
        "meta_epoch": "2025-12-03T09:29:48.079104",
        "meta_mean_motion": 13.42872568,
        "meta_eccentricity": 0.0342327,
        "meta_inclination": 98.8854,
        "meta_ra_of_asc_node": 287.055,
        "meta_arg_of_pericenter": 151.4161,
        "meta_mean_anomaly": 336.2116,
        "meta_ephemeris_type": 0,
        "meta_classification_type": "U",
        "meta_norad_cat_id": 30160,
        "meta_element_set_no": 999,
        "meta_rev_at_epoch": 92288,
        "meta_bstar": 0.00091605,
        "meta_mean_motion_dot": 7.03e-06,
        "meta_mean_motion_ddot": 0,
        "tle_line1": "1 30160U 99025TR  25337.39569536  .00000703  00000+0  91605-3 0  9994",
        "tle_line2": "2 30160  98.8854 287.0550 0342327 151.4161 336.2116 13.42872568922888"
      },
      "geometry": {
        "type": "Point",
        "coordinates": [
          10.834414246904206,
          -81.0491458484816
        ]
      }
    },
    {
      "type": "Feature",
      "properties": {
        "norad_id": 30161,
        "name": "FENGYUN 1C DEB",
        "group": "fengyun-1c-debris",
        "lat": -30.56395151917606,
        "lon": -28.851307731151422,
        "alt_km": 916.5996851989785,
        "timestamp": "2025-12-03T22:42:32.909758+00:00",
        "meta_object_name": "FENGYUN 1C DEB",
        "meta_object_id": "1999-025TS",
        "meta_epoch": "2025-12-03T12:47:55.442976",
        "meta_mean_motion": 13.49671407,
        "meta_eccentricity": 0.0328765,
        "meta_inclination": 100.5042,
        "meta_ra_of_asc_node": 324.4231,
        "meta_arg_of_pericenter": 280.1288,
        "meta_mean_anomaly": 200.6247,
        "meta_ephemeris_type": 0,
        "meta_classification_type": "U",
        "meta_norad_cat_id": 30161,
        "meta_element_set_no": 999,
        "meta_rev_at_epoch": 92435,
        "meta_bstar": 0.0028846,
        "meta_mean_motion_dot": 2.5e-05,
        "meta_mean_motion_ddot": 0,
        "tle_line1": "1 30161U 99025TS  25337.53328059  .00002500  00000+0  28846-2 0  9997",
        "tle_line2": "2 30161 100.5042 324.4231 0328765 280.1288 200.6247 13.49671407924350"
      },
      "geometry": {
        "type": "Point",
        "coordinates": [
          -28.851307731151422,
          -30.56395151917606
        ]
      }
    }
  ]
}